{
 "type": "FeatureCollection",
 "_note": "Corrected by hand in aoi_editor.html; roles: plantation | good | poor",
 "features": [
  {
   "type": "Feature",
   "properties": {
    "role": "plantation"
   },
   "geometry": {
    "type": "Polygon",
    "coordinates": [
     [
      [
       46.915457,
       -24.991341
      ],
      [
       46.91517,
       -24.991477
      ],
      [
       46.915013,
       -24.991507
      ],
      [
       46.914899,
       -24.991601
      ],
      [
       46.914868,
       -24.991693
      ],
      [
       46.91471,
       -24.991727
      ],
      [
       46.914596,
       -24.99183
      ],
      [
       46.91436,
       -24.991944
      ],
      [
       46.914254,
       -24.991941
      ],
      [
       46.914204,
       -24.992097
      ],
      [
       46.913977,
       -24.992217
      ],
      [
       46.913896,
       -24.992362
      ],
      [
       46.913603,
       -24.992282
      ],
      [
       46.913311,
       -24.992175
      ],
      [
       46.91312,
       -24.992102
      ],
      [
       46.913059,
       -24.992
      ],
      [
       46.912909,
       -24.991917
      ],
      [
       46.912815,
       -24.991936
      ],
      [
       46.912651,
       -24.991885
      ],
      [
       46.912538,
       -24.991958
      ],
      [
       46.912418,
       -24.992
      ],
      [
       46.912308,
       -24.991944
      ],
      [
       46.912136,
       -24.992056
      ],
      [
       46.912021,
       -24.99235
      ],
      [
       46.912088,
       -24.992525
      ],
      [
       46.912361,
       -24.992661
      ],
      [
       46.912251,
       -24.992765
      ],
      [
       46.912155,
       -24.992736
      ],
      [
       46.912066,
       -24.992836
      ],
      [
       46.911742,
       -24.99268
      ],
      [
       46.911498,
       -24.992948
      ],
      [
       46.911651,
       -24.993009
      ],
      [
       46.91159,
       -24.993102
      ],
      [
       46.91153,
       -24.993215
      ],
      [
       46.911398,
       -24.993249
      ],
      [
       46.911307,
       -24.993337
      ],
      [
       46.911208,
       -24.993641
      ],
      [
       46.911294,
       -24.993692
      ],
      [
       46.911203,
       -24.993855
      ],
      [
       46.910932,
       -24.993745
      ],
      [
       46.910819,
       -24.993806
      ],
      [
       46.910779,
       -24.993908
      ],
      [
       46.910634,
       -24.994086
      ],
      [
       46.910516,
       -24.99438
      ],
      [
       46.910752,
       -24.994564
      ],
      [
       46.911224,
       -24.99471
      ],
      [
       46.911173,
       -24.99499
      ],
      [
       46.91098,
       -24.994895
      ],
      [
       46.910985,
       -24.99509
      ],
      [
       46.910959,
       -24.995461
      ],
      [
       46.911531,
       -24.995721
      ],
      [
       46.911806,
       -24.995843
      ],
      [
       46.912042,
       -24.99551
      ],
      [
       46.912506,
       -24.995707
      ],
      [
       46.912635,
       -24.995751
      ],
      [
       46.912447,
       -24.996011
      ],
      [
       46.912919,
       -24.99639
      ],
      [
       46.913008,
       -24.996307
      ],
      [
       46.913118,
       -24.996045
      ],
      [
       46.913142,
       -24.995897
      ],
      [
       46.913432,
       -24.995904
      ],
      [
       46.913571,
       -24.995906
      ],
      [
       46.913898,
       -24.995629
      ],
      [
       46.914011,
       -24.995644
      ],
      [
       46.914083,
       -24.995576
      ],
      [
       46.91418,
       -24.995588
      ],
      [
       46.914392,
       -24.995311
      ],
      [
       46.914555,
       -24.995255
      ],
      [
       46.914716,
       -24.995223
      ],
      [
       46.914861,
       -24.995155
      ],
      [
       46.915237,
       -24.994667
      ],
      [
       46.91527,
       -24.994048
      ],
      [
       46.91507,
       -24.993961
      ],
      [
       46.914805,
       -24.993796
      ],
      [
       46.915066,
       -24.99369
      ],
      [
       46.915601,
       -24.993366
      ],
      [
       46.91591,
       -24.993142
      ],
      [
       46.916425,
       -24.992775
      ],
      [
       46.916658,
       -24.992518
      ],
      [
       46.916084,
       -24.99224
      ],
      [
       46.915752,
       -24.992352
      ],
      [
       46.915567,
       -24.99227
      ],
      [
       46.916221,
       -24.992131
      ],
      [
       46.916495,
       -24.991936
      ],
      [
       46.916126,
       -24.99178
      ],
      [
       46.915825,
       -24.991513
      ],
      [
       46.915457,
       -24.991341
      ]
     ]
    ]
   }
  },
  {
   "type": "Feature",
   "properties": {
    "role": "good"
   },
   "geometry": {
    "type": "Polygon",
    "coordinates": [
     [
      [
       46.911267,
       -24.994513
      ],
      [
       46.91139,
       -24.993949
      ],
      [
       46.910933,
       -24.99376
      ],
      [
       46.910819,
       -24.993806
      ],
      [
       46.910794,
       -24.99391
      ],
      [
       46.91058,
       -24.99422
      ],
      [
       46.910516,
       -24.99438
      ],
      [
       46.911224,
       -24.99471
      ],
      [
       46.911267,
       -24.994513
      ]
     ]
    ]
   }
  }
 ]
}