{"type": "FeatureCollection", "features": [{"type": "Feature", "properties": {"role": "plantation", "auto": 1}, "geometry": {"type": "Polygon", "coordinates": [[[46.915229, -24.991431], [46.915133, -24.991612], [46.914737, -24.991618], [46.913958, -24.99253], [46.913561, -24.992445], [46.913059, -24.992], [46.912466, -24.992098], [46.912271, -24.992281], [46.912278, -24.992733], [46.91159, -24.993102], [46.911593, -24.993283], [46.911396, -24.993376], [46.911403, -24.993827], [46.910913, -24.994195], [46.911416, -24.994639], [46.91113, -24.995365], [46.911531, -24.995721], [46.912025, -24.995625], [46.912226, -24.995803], [46.91223, -24.996073], [46.912632, -24.996429], [46.912926, -24.996245], [46.912922, -24.995974], [46.913117, -24.995791], [46.913514, -24.995786], [46.914198, -24.995236], [46.914692, -24.995139], [46.915178, -24.994501], [46.91527, -24.994048], [46.91507, -24.993961], [46.915066, -24.99369], [46.915556, -24.993322], [46.916051, -24.993316], [46.91644, -24.99286], [46.916437, -24.992679], [46.916037, -24.992413], [46.916126, -24.99178], [46.915825, -24.991513], [46.915229, -24.991431]]]}}], "_scene": "S2C_38JPT_20260703_0_L2A", "_auto_ha": 16.4}